
{
    "type":"FeatureCollection",
    "crs":{
        "type":"name",
        "name":"EPSG:4326"
    },
    "generator":"JOSM",
    "features":[
        {
            "type":"Feature",
            "properties":{
                "name":"Stadt, Land, Beides",
                "addr:country":"DE",
                "addr:city":"Nürnberg",
                "POI_TYPE":"consumer cooperative",
                "SSEDAS_PARTNER":"INKOTA"
            },
            "geometry":{
                "type":"Point",
                "coordinates":[
                    12.9118642,
                    48.3619187
                ]
            }
        },
        {
            "type":"Feature",
            "properties":{
                "name":"Ein Vermehrungsgarten für Hannover",
                "addr:country":"DE",
                "addr:street":"An der Bauernwiese",
                "addr:housenumber":"42",
                "addr:city":"Hannover",
                "POI_TYPE":"Community garden",
                "leisure":"garden",
                "garden:type":"community",
                "SSEDAS_PARTNER":"INKOTA"
            },
            "geometry":{
                "type":"Point",
                "coordinates":[
                    9.7276371717453,
                    52.33636175492746
                ]
            }
        },
        {
            "type":"Feature",
            "properties":{
                "name":"Reyerhof",
                "addr:country":"DE",
                "addr:street":"Unteraicher Straße",
                "addr:housenumber":"8",
                "addr:city":"Stuttgart-Möhringen",
                "POI_TYPE":"farm",
                "landuse":"farmyard",
                "SSEDAS_PARTNER":"INKOTA"
            },
            "geometry":{
                "type":"Point",
                "coordinates":[
                    9.14492801713147,
                    48.7244278
                ]
            }
        },
        {
            "type":"Feature",
            "properties":{
                "name":"Gartendeck",
                "addr:country":"DE",
                "addr:street":"Große Freiheit",
                "addr:housenumber":"62-68",
                "addr:city":"Hamburg",
                "POI_TYPE":"Community garden",
                "leisure":"garden",
                "garden:type":"community",
                "SSEDAS_PARTNER":"INKOTA"
            },
            "geometry":{
                "type":"Point",
                "coordinates":[
                    9.958181083202362,
                    53.5522011589383
                ]
            }
        },
        {
            "type":"Feature",
            "properties":{
                "name":"Paradinsel-Hof",
                "addr:country":"DE",
                "addr:street":"Köthensdorfer Hauptstraße",
                "addr:housenumber":"7",
                "addr:city":"Taura",
                "POI_TYPE":"farm",
                "landuse":"farmyard",
                "SSEDAS_PARTNER":"INKOTA"
            },
            "geometry":{
                "type":"Point",
                "coordinates":[
                    12.8618862371563,
                    50.90688865
                ]
            }
        },
        {
            "type":"Feature",
            "properties":{
                "name":"INSELGRÜN",
                "addr:country":"DE",
                "addr:street":"Güterstraße",
                "addr:housenumber":"4",
                "addr:city":"Stuttgart",
                "POI_TYPE":"Community garden",
                "leisure":"garden",
                "garden:type":"community",
                "SSEDAS_PARTNER":"INKOTA"
            },
            "geometry":{
                "type":"Point",
                "coordinates":[
                    9.226405000000002,
                    48.79747290000001
                ]
            }
        },
        {
            "type":"Feature",
            "properties":{
                "name":"KEBAP KulturEnergieBunkerAltonaProjekt e.V.",
                "addr:country":"DE",
                "addr:street":"Schomburgstraße",
                "addr:housenumber":"6",
                "addr:city":"Hamburg",
                "POI_TYPE":"energy supply",
                "SSEDAS_PARTNER":"INKOTA"
            },
            "geometry":{
                "type":"Point",
                "coordinates":[
                    9.951778650283813,
                    53.5518266908952
                ]
            }
        },
        {
            "type":"Feature",
            "properties":{
                "name":"NeuLand Köln",
                "addr:country":"DE",
                "addr:street":"Koblenzer Straße",
                "addr:housenumber":"15",
                "addr:city":"Köln",
                "POI_TYPE":"community garden",
                "leisure":"garden",
                "garden:type":"community",
                "SSEDAS_PARTNER":"INKOTA"
            },
            "geometry":{
                "type":"Point",
                "coordinates":[
                    6.9645854,
                    50.91430959999999
                ]
            }
        },
        {
            "type":"Feature",
            "properties":{
                "name":"Bioland-Imkerei Berg & Blüte",
                "addr:country":"DE",
                "addr:street":"Rambaldistraße",
                "addr:housenumber":"27",
                "addr:city":"München",
                "POI_TYPE":"beekeeper",
                "SSEDAS_PARTNER":"INKOTA"
            },
            "geometry":{
                "type":"Point",
                "coordinates":[
                    11.647843500000002,
                    48.1657125
                ]
            }
        },
        {
            "type":"Feature",
            "properties":{
                "name":"Moabienen",
                "addr:country":"DE",
                "addr:street":"Siemensstraße",
                "addr:housenumber":"27",
                "addr:city":"Berlin",
                "POI_TYPE":"beekeeper",
                "SSEDAS_PARTNER":"INKOTA"
            },
            "geometry":{
                "type":"Point",
                "coordinates":[
                    13.337053656578062,
                    52.533483125615525
                ]
            }
        },
        {
            "type":"Feature",
            "properties":{
                "name":"SoLawi Dortmund",
                "addr:country":"DE",
                "addr:street":"Kümper Heide",
                "addr:housenumber":"21",
                "addr:city":"Dortmund",
                "POI_TYPE":"community garden",
                "leisure":"garden",
                "garden:type":"community",
                "SSEDAS_PARTNER":"INKOTA"
            },
            "geometry":{
                "type":"Point",
                "coordinates":[
                    7.50016265235562,
                    51.5737588
                ]
            }
        },
        {
            "type":"Feature",
            "properties":{
                "name":"Ökomarkt Ostertor",
                "addr:country":"DE",
                "addr:street":"Ulrichsplatz/Wulwestraße",
                "addr:city":"Bremen",
                "POI_TYPE":"farmers market",
                "amenity":"marketplace",
                "SSEDAS_PARTNER":"INKOTA"
            },
            "geometry":{
                "type":"Point",
                "coordinates":[
                    8.81978452205658,
                    53.072802996738666
                ]
            }
        },
        {
            "type":"Feature",
            "properties":{
                "name":"Organischer Landbau in Bienenwerder",
                "addr:country":"DE",
                "addr:housenumber":"2b",
                "addr:city":"Müncheberg (Mark)",
                "POI_TYPE":"farm",
                "landuse":"farmyard",
                "SSEDAS_PARTNER":"INKOTA"
            },
            "geometry":{
                "type":"Point",
                "coordinates":[
                    14.053930788299997,
                    52.48680865
                ]
            }
        },
        {
            "type":"Feature",
            "properties":{
                "name":"Küche für Alle",
                "addr:country":"DE",
                "addr:street":"Am Ölberg",
                "addr:housenumber":"2",
                "addr:city":"Regensburg",
                "POI_TYPE":"community Kitchen",
                "amenity":"volxkuche",
                "SSEDAS_PARTNER":"INKOTA"
            },
            "geometry":{
                "type":"Point",
                "coordinates":[
                    12.0912749,
                    49.01841240000002
                ]
            }
        },
        {
            "type":"Feature",
            "properties":{
                "name":"Transition Initiative Hannover",
                "addr:country":"DE",
                "addr:street":"Hausmannstraße",
                "addr:housenumber":"42652",
                "addr:city":"Hannover",
                "POI_TYPE":"club",
                "club":"yes",
                "SSEDAS_PARTNER":"INKOTA"
            },
            "geometry":{
                "type":"Point",
                "coordinates":[
                    9.728296995162964,
                    52.377547689332
                ]
            }
        },
        {
            "type":"Feature",
            "properties":{
                "name":"Alsengarten",
                "addr:country":"DE",
                "addr:street":"Hinterhof der Alsenstraße",
                "addr:housenumber":"19a",
                "addr:city":"Bochum",
                "POI_TYPE":"community garden",
                "leisure":"garden",
                "garden:type":"community",
                "SSEDAS_PARTNER":"INKOTA"
            },
            "geometry":{
                "type":"Point",
                "coordinates":[
                    7.229221165180207,
                    51.476307949654554
                ]
            }
        },
        {
            "type":"Feature",
            "properties":{
                "name":"Bioladen Natur und Gesundheit",
                "addr:country":"DE",
                "addr:street":"Stresemannstraße",
                "addr:housenumber":"3",
                "addr:city":"Wuppertal",
                "POI_TYPE":"organic store",
                "SSEDAS_PARTNER":"INKOTA"
            },
            "geometry":{
                "type":"Point",
                "coordinates":[
                    7.196445634998721,
                    51.2688882
                ]
            }
        },
        {
            "type":"Feature",
            "properties":{
                "name":"Wandelgarten mit Wandelkino",
                "addr:country":"DE",
                "addr:street":"Luisenstraße",
                "addr:housenumber":"110",
                "addr:city":"Wuppertal",
                "POI_TYPE":"community garden",
                "leisure":"garden",
                "garden:type":"community",
                "SSEDAS_PARTNER":"INKOTA"
            },
            "geometry":{
                "type":"Point",
                "coordinates":[
                    7.136762738227844,
                    51.25626997148949
                ]
            }
        },
        {
            "type":"Feature",
            "properties":{
                "name":"BUND Brandenburg",
                "addr:country":"DE",
                "addr:street":"Friedrich-Ebert-Straße",
                "addr:housenumber":"114a",
                "addr:city":"Potsdam",
                "POI_TYPE":"club",
                "club":"yes",
                "SSEDAS_PARTNER":"INKOTA"
            },
            "geometry":{
                "type":"Point",
                "coordinates":[
                    13.057980537414549,
                    52.397848040356465
                ]
            }
        },
        {
            "type":"Feature",
            "properties":{
                "name":"Bio-Verbraucher e.V.",
                "addr:country":"DE",
                "addr:street":"Rieterstraße",
                "addr:housenumber":"20",
                "addr:city":"Nürnberg",
                "POI_TYPE":"club",
                "club":"yes",
                "SSEDAS_PARTNER":"INKOTA"
            },
            "geometry":{
                "type":"Point",
                "coordinates":[
                    11.067376,
                    49.46301870000001
                ]
            }
        },
        {
            "type":"Feature",
            "properties":{
                "name":"Gartenbaubetrieb noris inklusion gGmbH -  Rent-a-Huhn",
                "addr:country":"DE",
                "addr:street":"Berthold-Brecht-Straße",
                "addr:housenumber":"6",
                "addr:city":"Nürnberg",
                "POI_TYPE":"farm",
                "landuse":"farmyard",
                "SSEDAS_PARTNER":"INKOTA"
            },
            "geometry":{
                "type":"Point",
                "coordinates":[
                    11.120781898498533,
                    49.41536373131532
                ]
            }
        },
        {
            "type":"Feature",
            "properties":{
                "name":"Naturschutzbund Niedersachsen",
                "addr:country":"DE",
                "addr:street":"Alleestraße",
                "addr:housenumber":"36",
                "addr:city":"Hannover",
                "POI_TYPE":"club",
                "club":"yes",
                "SSEDAS_PARTNER":"INKOTA"
            },
            "geometry":{
                "type":"Point",
                "coordinates":[
                    9.70745849887023,
                    52.38970814999998
                ]
            }
        },
        {
            "type":"Feature",
            "properties":{
                "name":"Heuhüpfer e.V. - Lernort Kampfelder Hof",
                "addr:country":"DE",
                "addr:street":"Hauptstraße",
                "addr:housenumber":"31",
                "addr:city":"Hemmingen OT Hiddestorf",
                "POI_TYPE":"farm",
                "landuse":"farmyard",
                "SSEDAS_PARTNER":"INKOTA"
            },
            "geometry":{
                "type":"Point",
                "coordinates":[
                    9.712466597557068,
                    52.28212039724894
                ]
            }
        },
        {
            "type":"Feature",
            "properties":{
                "name":"Kölner Bio-Bauer",
                "addr:country":"DE",
                "addr:street":"Poll-Vingster Straße",
                "addr:housenumber":"215",
                "addr:city":"Köln",
                "POI_TYPE":"farm",
                "landuse":"farmyard",
                "SSEDAS_PARTNER":"INKOTA"
            },
            "geometry":{
                "type":"Point",
                "coordinates":[
                    7.01725340397193,
                    50.926553999999996
                ]
            }
        },
        {
            "type":"Feature",
            "properties":{
                "name":"plattsalat",
                "addr:country":"DE",
                "addr:street":"Bismarckstraße",
                "addr:housenumber":"55/1",
                "addr:city":"Stuttgart",
                "POI_TYPE":"organic store",
                "SSEDAS_PARTNER":"INKOTA"
            },
            "geometry":{
                "type":"Point",
                "coordinates":[
                    9.154076949527488,
                    48.7721782
                ]
            }
        },
        {
            "type":"Feature",
            "properties":{
                "name":"Leibspeise Dresden",
                "addr:country":"DE",
                "addr:street":"Haydnstraße",
                "addr:housenumber":"39/40",
                "addr:city":"Dresden",
                "POI_TYPE":"caterer",
                "SSEDAS_PARTNER":"INKOTA"
            },
            "geometry":{
                "type":"Point",
                "coordinates":[
                    13.778236806392664,
                    51.046501911239794
                ]
            }
        },
        {
            "type":"Feature",
            "properties":{
                "name":"Fördergemeinschaft Ökologischer Landbau / Aktionsbündnis Agrarwende Berlin-Brandenburg",
                "addr:country":"DE",
                "addr:street":"Marienstraße",
                "addr:housenumber":"19-20",
                "addr:city":"Berlin",
                "POI_TYPE":"club",
                "club":"yes",
                "SSEDAS_PARTNER":"INKOTA"
            },
            "geometry":{
                "type":"Point",
                "coordinates":[
                    13.383458711656402,
                    52.52246730000001
                ]
            }
        },
        {
            "type":"Feature",
            "properties":{
                "name":"ÖkoMarkt auf dem Ziegenmarkt",
                "addr:country":"DE",
                "addr:street":"Ziegenmarkt",
                "addr:city":"Bremen",
                "POI_TYPE":"farmers market",
                "amenity":"marketplace",
                "SSEDAS_PARTNER":"INKOTA"
            },
            "geometry":{
                "type":"Point",
                "coordinates":[
                    8.8268624816,
                    53.07287655
                ]
            }
        },
        {
            "type":"Feature",
            "properties":{
                "name":"Agrar Koordination & FIA e.V.",
                "addr:country":"DE",
                "addr:street":"Nernstweg",
                "addr:housenumber":"32-34",
                "addr:city":"Hamburg",
                "POI_TYPE":"education",
                "SSEDAS_PARTNER":"INKOTA"
            },
            "geometry":{
                "type":"Point",
                "coordinates":[
                    9.9326631,
                    53.556326600000006
                ]
            }
        },
        {
            "type":"Feature",
            "properties":{
                "name":"Gemeinschaftsgarten Allmende-Kontor",
                "addr:country":"DE",
                "addr:city":"Berlin",
                "POI_TYPE":"Community garden",
                "leisure":"garden",
                "garden:type":"community",
                "SSEDAS_PARTNER":"INKOTA"
            },
            "geometry":{
                "type":"Point",
                "coordinates":[
                    13.4027557,
                    52.47295780000002
                ]
            }
        },
        {
            "type":"Feature",
            "properties":{
                "name":"Arbeitskreis UniGarten",
                "addr:country":"DE",
                "addr:street":"Universitätsstraße",
                "addr:housenumber":"31",
                "addr:city":"Regensburg",
                "POI_TYPE":"community garden",
                "leisure":"garden",
                "garden:type":"community",
                "SSEDAS_PARTNER":"INKOTA"
            },
            "geometry":{
                "type":"Point",
                "coordinates":[
                    12.089891700000003,
                    48.9933206
                ]
            }
        },
        {
            "type":"Feature",
            "properties":{
                "name":"Ökonauten EG",
                "addr:country":"DE",
                "addr:street":"Sydower Feld",
                "addr:housenumber":"4",
                "addr:city":"Biesenthal",
                "POI_TYPE":"local producer",
                "SSEDAS_PARTNER":"INKOTA"
            },
            "geometry":{
                "type":"Point",
                "coordinates":[
                    13.673874735832213,
                    52.74833059421012
                ]
            }
        },
        {
            "type":"Feature",
            "properties":{
                "name":"Ab geht die Lucie!",
                "addr:country":"DE",
                "addr:street":"Lucie-Flechtmann-Platz",
                "addr:city":"Bremen",
                "POI_TYPE":"Community garden",
                "leisure":"garden",
                "garden:type":"community",
                "SSEDAS_PARTNER":"INKOTA"
            },
            "geometry":{
                "type":"Point",
                "coordinates":[
                    8.7968904777,
                    53.0740395
                ]
            }
        },
        {
            "type":"Feature",
            "properties":{
                "name":"Gemeinschaft Spörgelhof",
                "addr:country":"DE",
                "addr:street":"Am Wiesenweg",
                "addr:housenumber":"1",
                "addr:city":"Lanke",
                "POI_TYPE":"farm",
                "landuse":"farmyard",
                "SSEDAS_PARTNER":"INKOTA"
            },
            "geometry":{
                "type":"Point",
                "coordinates":[
                    13.578916200000002,
                    52.74414485
                ]
            }
        },
        {
            "type":"Feature",
            "properties":{
                "name":"Utopiastadtgarten",
                "addr:country":"DE",
                "addr:street":"Am Bahnhof Mirke, Mirker Straße",
                "addr:housenumber":"48",
                "addr:city":"Wuppertal",
                "POI_TYPE":"Community garden",
                "leisure":"garden",
                "garden:type":"community",
                "SSEDAS_PARTNER":"INKOTA"
            },
            "geometry":{
                "type":"Point",
                "coordinates":[
                    7.144455313682556,
                    51.266352388069194
                ]
            }
        },
        {
            "type":"Feature",
            "properties":{
                "name":"Bäckerei Back 2",
                "addr:country":"DE",
                "addr:street":"Einkaufspassage Deminaniplatz",
                "addr:housenumber":"19/20",
                "addr:city":"Görlitz",
                "POI_TYPE":"bakery",
                "shop":"bakery",
                "SSEDAS_PARTNER":"INKOTA"
            },
            "geometry":{
                "type":"Point",
                "coordinates":[
                    14.986472725868222,
                    51.152866215786446
                ]
            }
        },
        {
            "type":"Feature",
            "properties":{
                "name":"Biolandhof Karl Dollinger",
                "addr:country":"DE",
                "addr:street":"Offenbau",
                "addr:housenumber":"24",
                "addr:city":"Thalmässing",
                "POI_TYPE":"farm",
                "landuse":"farmyard",
                "SSEDAS_PARTNER":"INKOTA"
            },
            "geometry":{
                "type":"Point",
                "coordinates":[
                    11.270968099999997,
                    49.12228850000001
                ]
            }
        },
        {
            "type":"Feature",
            "properties":{
                "name":"Green Fair Planet e.V.",
                "addr:country":"DE",
                "addr:street":"Blücherstraße",
                "addr:housenumber":"1",
                "addr:city":"Minden",
                "POI_TYPE":"club",
                "club":"yes",
                "SSEDAS_PARTNER":"INKOTA"
            },
            "geometry":{
                "type":"Point",
                "coordinates":[
                    8.94322,
                    52.291234199999984
                ]
            }
        },
        {
            "type":"Feature",
            "properties":{
                "name":"Gemeinschaftsgarten am Protzenweiher",
                "addr:country":"DE",
                "addr:street":"Am Protzenweiher",
                "addr:city":"Regensburg",
                "POI_TYPE":"community garden",
                "leisure":"garden",
                "garden:type":"community",
                "SSEDAS_PARTNER":"INKOTA"
            },
            "geometry":{
                "type":"Point",
                "coordinates":[
                    12.100421190261843,
                    49.025702198353876
                ]
            }
        },
        {
            "type":"Feature",
            "properties":{
                "name":"UFER-Projekte Dresden e.V.",
                "addr:country":"DE",
                "addr:street":"Arthur-Weineck-Straße",
                "addr:housenumber":"3",
                "addr:city":"Dresden",
                "POI_TYPE":"Community garden",
                "leisure":"garden",
                "garden:type":"community",
                "SSEDAS_PARTNER":"INKOTA"
            },
            "geometry":{
                "type":"Point",
                "coordinates":[
                    13.6772792945647,
                    51.0517974
                ]
            }
        },
        {
            "type":"Feature",
            "properties":{
                "name":"Bienenschutz Stuttgart",
                "addr:country":"DE",
                "addr:street":"Johannesstraße",
                "addr:housenumber":"65",
                "addr:city":"Stuttgart",
                "POI_TYPE":"beekeeper",
                "SSEDAS_PARTNER":"INKOTA"
            },
            "geometry":{
                "type":"Point",
                "coordinates":[
                    9.1595436,
                    48.779852
                ]
            }
        },
        {
            "type":"Feature",
            "properties":{
                "name":"Imkerei Goldblüte e.V.",
                "addr:country":"DE",
                "addr:street":"Heckenweg",
                "addr:housenumber":"24",
                "addr:city":"Aichwald",
                "POI_TYPE":"beekeeper",
                "SSEDAS_PARTNER":"INKOTA"
            },
            "geometry":{
                "type":"Point",
                "coordinates":[
                    9.39257562160492,
                    48.77583057298484
                ]
            }
        },
        {
            "type":"Feature",
            "properties":{
                "name":"Wilde Gärtnerei",
                "addr:country":"DE",
                "addr:street":"Bernauer Straße",
                "addr:housenumber":"6",
                "addr:city":"Rüdnitz",
                "POI_TYPE":"farm",
                "landuse":"farmyard",
                "SSEDAS_PARTNER":"INKOTA"
            },
            "geometry":{
                "type":"Point",
                "coordinates":[
                    13.623651699999998,
                    52.7192273
                ]
            }
        },
        {
            "type":"Feature",
            "properties":{
                "name":"Genussgemeinschaft Städter und Bauern e.V.",
                "addr:country":"DE",
                "addr:street":"Holzstraße",
                "addr:housenumber":"15b",
                "addr:city":"München",
                "POI_TYPE":"farmers market",
                "amenity":"marketplace",
                "SSEDAS_PARTNER":"INKOTA"
            },
            "geometry":{
                "type":"Point",
                "coordinates":[
                    11.5684046,
                    48.12988950000001
                ]
            }
        },
        {
            "type":"Feature",
            "properties":{
                "name":"Mosterei Ketzür",
                "addr:country":"DE",
                "addr:street":"Ketzürer Dorfstraße",
                "addr:housenumber":"30",
                "addr:city":"Beetzseeheide",
                "POI_TYPE":"local producer",
                "SSEDAS_PARTNER":"INKOTA"
            },
            "geometry":{
                "type":"Point",
                "coordinates":[
                    12.629910707473755,
                    52.49449387216674
                ]
            }
        },
        {
            "type":"Feature",
            "properties":{
                "name":"VERN",
                "addr:country":"DE",
                "addr:street":"Burgstraße",
                "addr:housenumber":"20",
                "addr:city":"Greiffenberg/Uckermark",
                "POI_TYPE":"club",
                "club":"yes",
                "SSEDAS_PARTNER":"INKOTA"
            },
            "geometry":{
                "type":"Point",
                "coordinates":[
                    13.9586821,
                    53.08877519999999
                ]
            }
        },
        {
            "type":"Feature",
            "properties":{
                "name":"ÖkoMarkt Steintor",
                "addr:country":"DE",
                "addr:street":"Mecklenburger Straße",
                "addr:city":"Bremen",
                "POI_TYPE":"farmers market",
                "amenity":"marketplace",
                "SSEDAS_PARTNER":"INKOTA"
            },
            "geometry":{
                "type":"Point",
                "coordinates":[
                    8.828485608100891,
                    53.07111414253241
                ]
            }
        },
        {
            "type":"Feature",
            "properties":{
                "name":"Bauerngarten Berlin Havelmathen",
                "addr:country":"DE",
                "addr:street":"Kladower Damm",
                "addr:housenumber":"57",
                "addr:city":"Berlin Spandau",
                "POI_TYPE":"community garden",
                "leisure":"garden",
                "garden:type":"community",
                "SSEDAS_PARTNER":"INKOTA"
            },
            "geometry":{
                "type":"Point",
                "coordinates":[
                    13.1814524356521,
                    52.47823215
                ]
            }
        },
        {
            "type":"Feature",
            "properties":{
                "name":"Slow Food Regensburg",
                "addr:country":"DE",
                "addr:street":"Küffnerstraße",
                "addr:housenumber":"3",
                "addr:city":"Regensburg",
                "POI_TYPE":"food council",
                "SSEDAS_PARTNER":"INKOTA"
            },
            "geometry":{
                "type":"Point",
                "coordinates":[
                    12.1005706434572,
                    49.02214255
                ]
            }
        },
        {
            "type":"Feature",
            "properties":{
                "name":"SoLaWi Tiefbrunn",
                "addr:country":"DE",
                "addr:street":"Mangoldinger Straße",
                "addr:housenumber":"11",
                "addr:city":"Tiefbrunn/Mintraching",
                "POI_TYPE":"farm",
                "landuse":"farmyard",
                "SSEDAS_PARTNER":"INKOTA"
            },
            "geometry":{
                "type":"Point",
                "coordinates":[
                    12.260608077049255,
                    48.93193086612635
                ]
            }
        },
        {
            "type":"Feature",
            "properties":{
                "name":"Aprikosen für Alle",
                "addr:country":"DE",
                "addr:street":"Leisninger Straße",
                "addr:housenumber":"80",
                "addr:city":"Dresden",
                "POI_TYPE":"Community garden",
                "leisure":"garden",
                "garden:type":"community",
                "SSEDAS_PARTNER":"INKOTA"
            },
            "geometry":{
                "type":"Point",
                "coordinates":[
                    13.72119426727295,
                    51.083077973899044
                ]
            }
        },
        {
            "type":"Feature",
            "properties":{
                "name":"Biohof Werder",
                "addr:country":"DE",
                "addr:street":"Hoher Weg",
                "addr:housenumber":"10",
                "addr:city":"Werder/Havel",
                "POI_TYPE":"farm",
                "landuse":"farmyard",
                "SSEDAS_PARTNER":"INKOTA"
            },
            "geometry":{
                "type":"Point",
                "coordinates":[
                    12.931992634942798,
                    52.3790833
                ]
            }
        },
        {
            "type":"Feature",
            "properties":{
                "name":"Die Biohöfe im Windrather Tal",
                "addr:country":"DE",
                "addr:street":"Windrather Tal",
                "addr:city":"Windrath",
                "POI_TYPE":"farm",
                "landuse":"farmyard",
                "SSEDAS_PARTNER":"INKOTA"
            },
            "geometry":{
                "type":"Point",
                "coordinates":[
                    7.1276621,
                    51.3235594
                ]
            }
        },
        {
            "type":"Feature",
            "properties":{
                "name":"Bauernladen Paulskloster",
                "addr:country":"DE",
                "addr:street":"Beim Paulskloster",
                "addr:housenumber":"28",
                "addr:city":"Bremen",
                "POI_TYPE":"organic store",
                "SSEDAS_PARTNER":"INKOTA"
            },
            "geometry":{
                "type":"Point",
                "coordinates":[
                    8.818228840827942,
                    53.07136231800794
                ]
            }
        },
        {
            "type":"Feature",
            "properties":{
                "name":"Kein Patent",
                "addr:country":"DE",
                "addr:street":"Frohschammerstraße",
                "addr:housenumber":"14",
                "addr:city":"München",
                "POI_TYPE":"club",
                "club":"yes",
                "SSEDAS_PARTNER":"INKOTA"
            },
            "geometry":{
                "type":"Point",
                "coordinates":[
                    11.5687822,
                    48.1791081
                ]
            }
        },
        {
            "type":"Feature",
            "properties":{
                "name":"Die junge AbL",
                "addr:country":"DE",
                "addr:street":"Walburger Straße",
                "addr:housenumber":"2",
                "addr:city":"Witzenhausen",
                "POI_TYPE":"club",
                "club":"yes",
                "SSEDAS_PARTNER":"INKOTA"
            },
            "geometry":{
                "type":"Point",
                "coordinates":[
                    9.858646988868713,
                    51.34172662027351
                ]
            }
        },
        {
            "type":"Feature",
            "properties":{
                "name":"Die Bäcker - Zeit für Geschmack e.V.",
                "addr:country":"DE",
                "addr:housenumber":"32",
                "addr:city":"Barsinghausen",
                "POI_TYPE":"bakery",
                "shop":"bakery",
                "SSEDAS_PARTNER":"INKOTA"
            },
            "geometry":{
                "type":"Point",
                "coordinates":[
                    9.52034041920296,
                    52.280081599999995
                ]
            }
        },
        {
            "type":"Feature",
            "properties":{
                "name":"Hofgemeinschaft Oldendorf",
                "addr:country":"DE",
                "addr:street":"Oldendorfer Landstraße",
                "addr:housenumber":"24",
                "addr:city":"Holste",
                "POI_TYPE":"farm",
                "landuse":"farmyard",
                "SSEDAS_PARTNER":"INKOTA"
            },
            "geometry":{
                "type":"Point",
                "coordinates":[
                    8.829290270805357,
                    53.373494700195565
                ]
            }
        },
        {
            "type":"Feature",
            "properties":{
                "name":"Hof zur bunten Kuh",
                "addr:country":"DE",
                "addr:street":"Lichtenwalder Straße",
                "addr:housenumber":"1",
                "addr:city":"Frankenberg",
                "POI_TYPE":"farm",
                "landuse":"farmyard",
                "SSEDAS_PARTNER":"INKOTA"
            },
            "geometry":{
                "type":"Point",
                "coordinates":[
                    13.010978265500503,
                    50.89539175
                ]
            }
        },
        {
            "type":"Feature",
            "properties":{
                "name":"Bäckerei Weber GmbH",
                "addr:country":"DE",
                "addr:street":"Ringstraße",
                "addr:housenumber":"48",
                "addr:city":"Winnenden",
                "POI_TYPE":"bakery",
                "shop":"bakery",
                "SSEDAS_PARTNER":"INKOTA"
            },
            "geometry":{
                "type":"Point",
                "coordinates":[
                    9.39552399233664,
                    48.87651395000001
                ]
            }
        },
        {
            "type":"Feature",
            "properties":{
                "name":"Kattendorfer Hof",
                "addr:country":"DE",
                "addr:street":"Dorfstraße",
                "addr:housenumber":"1a",
                "addr:city":"Kattendorf",
                "POI_TYPE":"farm",
                "landuse":"farmyard",
                "SSEDAS_PARTNER":"INKOTA"
            },
            "geometry":{
                "type":"Point",
                "coordinates":[
                    10.0232595205307,
                    53.84500441720361
                ]
            }
        },
        {
            "type":"Feature",
            "properties":{
                "name":"SpeiseGut",
                "addr:country":"DE",
                "addr:street":"Kladower Damm",
                "addr:housenumber":"57",
                "addr:city":"Berlin-Spandau",
                "POI_TYPE":"farm",
                "landuse":"farmyard",
                "SSEDAS_PARTNER":"INKOTA"
            },
            "geometry":{
                "type":"Point",
                "coordinates":[
                    13.1814524356521,
                    52.47823215
                ]
            }
        },
        {
            "type":"Feature",
            "properties":{
                "name":"Waldgärtner",
                "addr:country":"DE",
                "addr:street":"Schrenkstraße",
                "addr:housenumber":"9",
                "addr:city":"München",
                "POI_TYPE":"farm",
                "landuse":"farmyard",
                "SSEDAS_PARTNER":"INKOTA"
            },
            "geometry":{
                "type":"Point",
                "coordinates":[
                    11.541671699999998,
                    48.1387664
                ]
            }
        },
        {
            "type":"Feature",
            "properties":{
                "name":"Bauerngarten Berlin Pankow",
                "addr:country":"DE",
                "addr:street":"Blankenfelder Chaussee",
                "addr:housenumber":"5",
                "addr:city":"Berlin",
                "POI_TYPE":"community garden",
                "leisure":"garden",
                "garden:type":"community",
                "SSEDAS_PARTNER":"INKOTA"
            },
            "geometry":{
                "type":"Point",
                "coordinates":[
                    13.3991708,
                    52.6053291
                ]
            }
        },
        {
            "type":"Feature",
            "properties":{
                "name":"Lernbauernhof Schulte-Tigges",
                "addr:country":"DE",
                "addr:street":"Kümper Heide",
                "addr:housenumber":"21",
                "addr:city":"Dortmund",
                "POI_TYPE":"farm",
                "landuse":"farmyard",
                "SSEDAS_PARTNER":"INKOTA"
            },
            "geometry":{
                "type":"Point",
                "coordinates":[
                    7.50016265235562,
                    51.5737588
                ]
            }
        },
        {
            "type":"Feature",
            "properties":{
                "name":"Social Seeds",
                "addr:country":"DE",
                "addr:street":"Gneistraße",
                "addr:housenumber":"10",
                "addr:city":"Berlin",
                "POI_TYPE":"club",
                "club":"yes",
                "SSEDAS_PARTNER":"INKOTA"
            },
            "geometry":{
                "type":"Point",
                "coordinates":[
                    13.415417075157166,
                    52.54425839952425
                ]
            }
        },
        {
            "type":"Feature",
            "properties":{
                "name":"Ökomarkt Neustadt",
                "addr:country":"DE",
                "addr:street":"Pappelstraße",
                "addr:city":"Bremen",
                "POI_TYPE":"farmers market",
                "amenity":"marketplace",
                "SSEDAS_PARTNER":"INKOTA"
            },
            "geometry":{
                "type":"Point",
                "coordinates":[
                    8.790564999999999,
                    53.06823539999999
                ]
            }
        },
        {
            "type":"Feature",
            "properties":{
                "name":"freiLand CSA",
                "addr:country":"DE",
                "addr:street":"Friedrich-Engels-Straße",
                "addr:housenumber":"22",
                "addr:city":"Potsdam",
                "POI_TYPE":"consumer cooperative",
                "SSEDAS_PARTNER":"INKOTA"
            },
            "geometry":{
                "type":"Point",
                "coordinates":[
                    13.077686935565,
                    52.3895574
                ]
            }
        },
        {
            "type":"Feature",
            "properties":{
                "name":"Tifu Tutenberg Institut für Umweltgestaltung e.V. – Permakulturgarten",
                "addr:country":"DE",
                "addr:street":"Schulgartenweg / Altonaer Volkspark",
                "addr:city":"Hamburg",
                "POI_TYPE":"Community Garden",
                "leisure":"garden",
                "garden:type":"community",
                "SSEDAS_PARTNER":"INKOTA"
            },
            "geometry":{
                "type":"Point",
                "coordinates":[
                    9.90142822265625,
                    53.5764038844009
                ]
            }
        },
        {
            "type":"Feature",
            "properties":{
                "name":"Bauerngarten Berlin Mette",
                "addr:country":"DE",
                "addr:street":"Querweg",
                "addr:housenumber":"7",
                "addr:city":"Schönefeld",
                "POI_TYPE":"Community garden",
                "leisure":"garden",
                "garden:type":"community",
                "SSEDAS_PARTNER":"INKOTA"
            },
            "geometry":{
                "type":"Point",
                "coordinates":[
                    13.446574999999996,
                    52.40551210000002
                ]
            }
        },
        {
            "type":"Feature",
            "properties":{
                "name":"Hof zur Hellen",
                "addr:country":"DE",
                "addr:street":"Windrather Straße",
                "addr:housenumber":"197",
                "addr:city":"Velbert-Neviges",
                "POI_TYPE":"farm",
                "landuse":"farmyard",
                "SSEDAS_PARTNER":"INKOTA"
            },
            "geometry":{
                "type":"Point",
                "coordinates":[
                    7.134383400000001,
                    51.31942389999999
                ]
            }
        },
        {
            "type":"Feature",
            "properties":{
                "name":"Bonnekamp-Stiftung für die integrative Stadt",
                "addr:country":"DE",
                "addr:street":"Welterbe Zollverein, A9, Gelsenkirchener Straße",
                "addr:housenumber":"181",
                "addr:city":"Essen",
                "POI_TYPE":"research",
                "SSEDAS_PARTNER":"INKOTA"
            },
            "geometry":{
                "type":"Point",
                "coordinates":[
                    7.045910954475403,
                    51.486350384278076
                ]
            }
        },
        {
            "type":"Feature",
            "properties":{
                "name":"Essenszeit - Agentur für gesundes Leben",
                "addr:country":"DE",
                "addr:street":"Zur Schwanenburg",
                "addr:housenumber":"11",
                "addr:city":"Hannover",
                "POI_TYPE":"Restaurant",
                "amenity":"restaurant",
                "SSEDAS_PARTNER":"INKOTA"
            },
            "geometry":{
                "type":"Point",
                "coordinates":[
                    9.693535566329954,
                    52.376809229520326
                ]
            }
        },
        {
            "type":"Feature",
            "properties":{
                "name":"DeinHof – Solidarische Gemüsekoop Dresden",
                "addr:country":"DE",
                "addr:street":"Niederwarthaer Straße",
                "addr:housenumber":"50",
                "addr:city":"Radebeul",
                "POI_TYPE":"consumer cooperative",
                "SSEDAS_PARTNER":"INKOTA"
            },
            "geometry":{
                "type":"Point",
                "coordinates":[
                    13.605346500000001,
                    51.09945840000001
                ]
            }
        },
        {
            "type":"Feature",
            "properties":{
                "name":"Interkultureller Garten Wilhelmsburg e.V.",
                "addr:country":"DE",
                "addr:street":"hinter dem Haus Veringstraße",
                "addr:housenumber":"147",
                "addr:city":"Hamburg",
                "POI_TYPE":"Community garden",
                "leisure":"garden",
                "garden:type":"community",
                "SSEDAS_PARTNER":"INKOTA"
            },
            "geometry":{
                "type":"Point",
                "coordinates":[
                    9.986100196838379,
                    53.50685051203823
                ]
            }
        },
        {
            "type":"Feature",
            "properties":{
                "name":"Biolandhof Apfelbacher",
                "addr:country":"DE",
                "addr:street":"Tombergstraße",
                "addr:housenumber":"1",
                "addr:city":"Bornheim",
                "POI_TYPE":"farm",
                "landuse":"farmyard",
                "SSEDAS_PARTNER":"INKOTA"
            },
            "geometry":{
                "type":"Point",
                "coordinates":[
                    6.96425230219557,
                    50.74901090000001
                ]
            }
        },
        {
            "type":"Feature",
            "properties":{
                "name":"Kartoffelkombinat",
                "addr:country":"DE",
                "addr:street":"Durasweg",
                "addr:housenumber":"3",
                "addr:city":"München",
                "POI_TYPE":"farm",
                "landuse":"farmyard",
                "SSEDAS_PARTNER":"INKOTA"
            },
            "geometry":{
                "type":"Point",
                "coordinates":[
                    11.4582012,
                    48.1693873
                ]
            }
        },
        {
            "type":"Feature",
            "properties":{
                "name":"Keimzelle – TAUSCHPLATZ für Alle",
                "addr:country":"DE",
                "addr:street":"Ölmühlenplatz im Karolinenviertel",
                "addr:city":"Hamburg",
                "POI_TYPE":"Community garden",
                "leisure":"garden",
                "garden:type":"community",
                "SSEDAS_PARTNER":"INKOTA"
            },
            "geometry":{
                "type":"Point",
                "coordinates":[
                    9.96922641992569,
                    53.558072703167795
                ]
            }
        },
        {
            "type":"Feature",
            "properties":{
                "name":"Markthalle Neun",
                "addr:country":"DE",
                "addr:street":"Eisenbahnstraße",
                "addr:housenumber":"42/43",
                "addr:city":"Berlin",
                "POI_TYPE":"convenience store",
                "shop":"convenience",
                "SSEDAS_PARTNER":"INKOTA"
            },
            "geometry":{
                "type":"Point",
                "coordinates":[
                    13.431200399999998,
                    52.5021469
                ]
            }
        },
        {
            "type":"Feature",
            "properties":{
                "name":"o’pflanzt is!",
                "addr:country":"DE",
                "addr:street":"Emma-Ihrer-Straße",
                "addr:city":"München",
                "POI_TYPE":"Community garden",
                "leisure":"garden",
                "garden:type":"community",
                "SSEDAS_PARTNER":"INKOTA"
            },
            "geometry":{
                "type":"Point",
                "coordinates":[
                    11.549742221832275,
                    48.161441061721604
                ]
            }
        },
        {
            "type":"Feature",
            "properties":{
                "name":"MOTTE – Stadtteil&Kulturzentrum",
                "addr:country":"DE",
                "addr:street":"Eulenstraße",
                "addr:housenumber":"43",
                "addr:city":"Hamburg",
                "POI_TYPE":"Community center",
                "amenity":"community_centre",
                "SSEDAS_PARTNER":"INKOTA"
            },
            "geometry":{
                "type":"Point",
                "coordinates":[
                    9.9277721,
                    53.550224799999995
                ]
            }
        },
        {
            "type":"Feature",
            "properties":{
                "name":"LohmannsHof",
                "addr:country":"DE",
                "addr:street":"Eichenstraße",
                "addr:housenumber":"24",
                "addr:city":"Westen",
                "POI_TYPE":"farm",
                "landuse":"farmyard",
                "SSEDAS_PARTNER":"INKOTA"
            },
            "geometry":{
                "type":"Point",
                "coordinates":[
                    9.3026735,
                    52.83662369999999
                ]
            }
        },
        {
            "type":"Feature",
            "properties":{
                "name":"Fleisch & Mehr... Feines zum Geniessen - Sebastian Spickernagel KG",
                "addr:country":"DE",
                "addr:street":"D.-Martin-Luther-Straße",
                "addr:housenumber":"2",
                "addr:city":"Regensburg",
                "POI_TYPE":"butcher",
                "shop":"butcher",
                "SSEDAS_PARTNER":"INKOTA"
            },
            "geometry":{
                "type":"Point",
                "coordinates":[
                    12.101196400000001,
                    49.01686180000001
                ]
            }
        },
        {
            "type":"Feature",
            "properties":{
                "name":"Stadtgarten Gartenküche",
                "addr:country":"DE",
                "addr:street":"Wandererstraße",
                "addr:housenumber":"44",
                "addr:city":"Nürnberg",
                "POI_TYPE":"community garden",
                "leisure":"garden",
                "garden:type":"community",
                "SSEDAS_PARTNER":"INKOTA"
            },
            "geometry":{
                "type":"Point",
                "coordinates":[
                    11.034430861473083,
                    49.45435172227845
                ]
            }
        },
        {
            "type":"Feature",
            "properties":{
                "name":"Solidarische Landwirtschaft – Gut Adolphshof",
                "addr:country":"DE",
                "addr:city":"Lehrte-Hämelerwald",
                "POI_TYPE":"farm",
                "landuse":"farmyard",
                "SSEDAS_PARTNER":"INKOTA"
            },
            "geometry":{
                "type":"Point",
                "coordinates":[
                    10.118776000000004,
                    52.332932
                ]
            }
        },
        {
            "type":"Feature",
            "properties":{
                "name":"Schepershof",
                "addr:country":"DE",
                "addr:street":"Windrather Straße",
                "addr:housenumber":"134",
                "addr:city":"Velbert",
                "POI_TYPE":"farm",
                "landuse":"farmyard",
                "SSEDAS_PARTNER":"INKOTA"
            },
            "geometry":{
                "type":"Point",
                "coordinates":[
                    7.1319004,
                    51.3140977
                ]
            }
        },
        {
            "type":"Feature",
            "properties":{
                "name":"Uria e.V.",
                "addr:country":"DE",
                "addr:street":"Dorfstraße",
                "addr:housenumber":"42",
                "addr:city":"Balingen-Ostdorf",
                "POI_TYPE":"club",
                "club":"yes",
                "SSEDAS_PARTNER":"INKOTA"
            },
            "geometry":{
                "type":"Point",
                "coordinates":[
                    8.838624358177183,
                    48.30378262296572
                ]
            }
        },
        {
            "type":"Feature",
            "properties":{
                "name":"Bio Streuobst-Hof Stöckl",
                "addr:country":"DE",
                "addr:street":"Hauptstraße",
                "addr:housenumber":"6",
                "addr:city":"Rohr",
                "POI_TYPE":"farm",
                "landuse":"farmyard",
                "SSEDAS_PARTNER":"INKOTA"
            },
            "geometry":{
                "type":"Point",
                "coordinates":[
                    11.971991658210754,
                    48.768699592497114
                ]
            }
        }
    ]
}
